{
  "norad_id": 51805,
  "name": "STARLINK-3605",
  "history": [
    {
      "epoch": "2026-03-28T20:02:29.244480",
      "apogee_km": 540.6833324760819,
      "perigee_km": 538.6079976765577,
      "latitude_deg": 46.363120800737526,
      "longitude_deg": 160.6658271998167,
      "semi_major_axis_km": 6917.782665076319,
      "eccentricity": 0.00015,
      "inclination_deg": 53.2167,
      "raan_deg": 243.2508,
      "arg_perigee_deg": 99.4736,
      "mean_anomaly_deg": 260.6426,
      "mean_motion_rev_day": 15.08871972
    }
  ]
}