{"fetched_at":"2026-03-29T16:36:15Z","count":15609,"tles":[{"name":"STARLINK-3605","line1":"1 51805U 22017AP  26087.83506070 -.00007022  00000+0 -42313-3 0  9991","line2":"2 51805  53.2167 243.2508 0001500  99.4736 260.6426 15.08871972227132","category":"Starlink"}]}